C/2018 V4 (Africano),e,69.0039,78.3788,359.9708,210.0620,0.0003237,0.98477383,0.0000,03/01.5321/2019,2000,g 12.5,4.0
# From MPC114604
P/2018 V5 (Trujillo-Sheppard),e,10.5824,171.2981,260.7379,8.955220,0.0367781,0.47446942,21.5125,05/10.0/2020,2000,g 12.5,4.0
# From MPEC 2020-H67
C/2018 W1 (Catalina),e,83.2593,233.5914,251.2586,21.78532,0.0096930,0.93755012,3.5298,05/10.0/2020,2000,g 15.7,2.0
# From MPEC 2020-H67
C/2018 W2 (Africano),h,09/05.7227/2019,116.6168,181.8532,157.9766,1.000646,1.454725,2000,9.5,4.0
# From MPC119996
C/2018 X2 (Fitzsimmons),e,23.0695,340.8288,162.0584,151.1567,0.0005304,0.98593415,0.0000,07/08.5331/2019,2000,g 12.0,4.0
# From MPC114604
C/2018 X3 (PANSTARRS),e,43.3689,78.9212,359.7896,12.39236,0.0225930,0.78228374,11.2142,05/10.0/2020,2000,g 14.5,4.0
# From MPEC 2020-H67
C/2018 Y1 (Iwamoto),e,160.4023,147.5005,358.0498,143.9889,0.0005704,0.99106656,0.0000,02/07.0387/2019,2000,g 11.5,4.0
# From MPC114605
P/2018 Y2 (Africano),e,11.6828,297.2673,162.4273,7.467908,0.0482954,0.47878037,23.8514,05/10.0/2020,2000,g 11.5,4.0
# From MPC114605
P/2019 A1 (PANSTARRS),e,13.7442,312.3020,150.8276,5.125896,0.0849277,0.56848628,49.0122,05/10.0/2020,2000,g 16.0,4.0
# From MPEC 2020-H67
P/2019 A2 (ATLAS),e,14.8596,139.4643,324.1547,5.726819,0.0719174,0.38147252,38.5471,05/10.0/2020,2000,g 10.5,4.0
# From MPC114605
P/2019 A3 (PANSTARRS),e,15.3649,31.3173,325.4750,3.147379,0.1765145,0.26526780,114.2197,05/10.0/2020,2000,g 16.0,4.0
# From MPC114605
P/2019 A4 (PANSTARRS),e,13.3206,119.3004,341.6391,2.612938,0.2333514,0.08925459,121.9462,05/10.0/2020,2000,g 15.0,4.0
# From MPC118842
C/2019 A5 (PANSTARRS),e,67.5507,146.6218,356.0184,21.62174,0.0098032,0.70752063,3.2921,05/10.0/2020,2000,g  9.5,4.0
# From MPC114605
P/2019 A6 (Lemmon-PANSTARRS),e,33.2291,280.2748,156.2519,5.366212,0.0792871,0.63891039,49.1442,05/10.0/2020,2000,g 16.0,4.0
# From MPC114605
P/2019 A7 (PANSTARRS),e,17.7743,280.5251,119.3275,3.186343,0.1732867,0.16091083,147.9337,05/10.0/2020,2000,g 13.5,4.0
# From MPC115884
P/2019 A8 (PANSTARRS),e,2.9868,127.7291,21.9187,3.365427,0.1596407,0.44215243,97.9454,05/10.0/2020,2000,g 16.0,4.0
# From MPC118842
C/2019 A9 (PANSTARRS),e,84.3359,278.3704,237.8582,39.33331,0.0039954,0.96370982,1.1523,05/10.0/2020,2000,g 15.0,4.0
# From MPC114606
C/2019 B1 (Africano),e,123.3631,290.4367,174.8660,150.2237,0.0005353,0.98936988,0.0000,03/19.8852/2019,2000,g 16.0,4.0
# From MPC115885
P/2019 B2 (Groeller),e,16.8263,176.4365,358.8323,3.855588,0.1301871,0.37305126,43.8264,05/10.0/2020,2000,g 14.5,4.0
# From MPEC 2020-H67
C/2019 B3 (PANSTARRS),h,01/19.6973/2021,66.5356,358.4196,263.8876,1.002968,6.823641,2000,5.5,4.0
# From MPEC 2020-AA5
A/2019 C1,e,36.0170,212.3964,319.1935,825.3193,0.0000416,0.99202587,0.0000,05/05.7597/2020,2000,g 10.0,4.0
# From MPEC 2020-H67
C/2019 C1 (ATLAS),e,36.0169,212.3965,319.1896,820.1374,0.0000420,0.99197539,0.0000,05/05.7162/2020,2000,g 10.0,4.0
# From MPEC 2020-H67
C/2019 D1 (Flewelling),e,34.0945,231.7197,70.4929,139.4341,0.0005986,0.98868361,0.0000,05/11.8644/2019,2000,g 13.0,4.0
# From MPEC 2020-H67
C/2019 E3 (ATLAS),h,11/11.7911/2023,84.2817,347.2260,280.5902,1.004825,10.315833,2000,2.5,4.0
# From MPEC 2020-H67
C/2019 F1 (ATLAS-Africano),h,06/22.7578/2021,54.1743,38.7259,251.1040,1.003418,3.596237,2000,5.5,4.0
# From MPEC 2020-H67
C/2019 F2 (ATLAS),e,19.1872,175.8503,11.0040,16.59321,0.0145817,0.86541160,3.5582,05/10.0/2020,2000,g 12.0,4.0
# From MPEC 2020-H67
A/2019 G2,e,159.2111,208.1472,82.6518,723.7366,0.0000506,0.99683405,0.0000,12/10.0544/2019,2000,g 16.5,2.0
# From MPEC 2020-H67
A/2019 G4,h,09/15.7945/2018,138.3841,130.4653,287.8786,1.000844,5.858758,2000,13.0,2.0
# From MPC114607
P/2019 GG21 (PANSTARRS),e,6.0837,340.5973,208.3728,7.467292,0.0483014,0.47293852,17.6662,05/10.0/2020,2000,g 12.0,4.0
# From MPC115885
C/2019 H1 (NEOWISE),e,104.5789,269.1860,19.2938,228.2338,0.0002858,0.99191551,0.0000,04/27.7450/2019,2000,g 15.5,4.0
# From MPC118842
C/2019 J1 (Lemmon),e,24.5505,98.0875,167.7771,70.11818,0.0016786,0.96465097,0.6660,05/10.0/2020,2000,g 12.0,4.0
# From MPC115885
C/2019 J2 (Palomar),e,105.1360,25.4714,98.7086,682.7136,0.0000553,0.99747032,0.0000,07/19.7170/2019,2000,g 13.0,4.0
# From MPEC 2020-H67
C/2019 J3 (ATLAS),e,131.4140,270.5175,16.5519,107966,0.0000000,0.99997802,0.0000,08/01.8762/2019,2000,g 13.5,4.0
# From MPC117071
C/2019 JU6 (ATLAS),e,148.2938,21.7366,94.8727,328.2516,0.0001657,0.99376993,0.0000,05/31.8601/2019,2000,g 14.5,4.0
# From MPEC 2020-H67
C/2019 K1 (ATLAS),e,87.1488,73.3750,265.7092,10808,0.0000009,0.99981378,0.0000,02/12.9689/2020,2000,g 10.0,4.0
# From MPC119997
C/2019 K4 (Ye),e,105.3036,180.1651,139.7739,1939,0.0000115,0.99883461,0.0000,06/16.4035/2019,2000,g 12.5,4.0
# From MPEC 2020-H67
C/2019 K5 (Young),e,15.3145,177.1804,174.9326,153.8941,0.0005163,0.98677585,0.0000,06/22.7829/2019,2000,g 13.0,4.0
# From MPC117071
A/2019 K6,e,132.3734,42.9399,187.6139,1512,0.0000168,0.99740192,0.0000,05/20.1630/2020,2000,g 13.6,2.0
# From MPC118095
C/2019 K7 (Smith),h,06/16.8910/2020,103.5282,307.9228,27.2903,1.001645,4.474935,2000,6.2,4.0
# From MPEC 2020-H67
C/2019 K8 (ATLAS),e,93.2233,291.0443,85.3639,1755,0.0000134,0.99817943,0.0000,07/21.2818/2019,2000,g 11.5,4.0
# From MPC118095
C/2019 L1 (PANSTARRS),e,9.9934,254.4071,49.9312,9.832903,0.0319655,0.70604998,8.7169,05/10.0/2020,2000,g 13.5,4.0
# From MPC115886
C/2019 L2 (NEOWISE),e,152.1795,12.5859,18.7457,24.91525,0.0079251,0.93499153,3.2025,05/10.0/2020,2000,g 16.0,4.0
# From MPEC 2020-H67
C/2019 L3 (ATLAS),h,01/09.9054/2022,48.3664,290.7842,171.6637,1.000408,3.553298,2000,4.5,4.0
# From MPC118095
C/2019 LB7 (Kleyna),e,164.2453,3.3689,336.0533,35.44059,0.0046715,0.92988565,1.9133,05/10.0/2020,2000,g 17.0,4.0
# From MPC118843
P/2019 M2 (ATLAS),e,12.2819,307.5985,332.5395,3.025794,0.1872600,0.64847411,60.3596,05/10.0/2020,2000,g 21.2,4.0
# From MPC118095
C/2019 M3 (ATLAS),h,01/02.9945/2019,99.4427,154.8957,87.9428,1.001913,2.418390,2000,12.2,4.0
# From MPEC 2020-H67
C/2019 N1 (ATLAS),e,82.4249,13.5763,193.4439,24754,0.0000003,0.99993114,0.0000,12/01.7945/2020,2000,g  7.5,4.0
# From MPEC 2020-H67
A/2019 O2,e,93.2864,48.3394,129.6467,57.51030,0.0022599,0.83162989,357.5995,05/10.0/2020,2000,g  9.5,2.0
# From MPEC 2020-H67
A/2019 O3,h,03/06.9580/2021,89.8152,300.3807,59.9925,1.001358,8.820373,2000,10.0,2.0
# From MPEC 2020-H67
A/2019 O4,e,115.0855,354.9204,61.8107,32.87456,0.0052289,0.88913942,0.4709,05/10.0/2020,2000,g 15.5,2.0
# From MPEC 2020-AA5
A/2019 Q1,h,07/19.7683/2020,155.7200,42.3364,55.9289,1.000408,4.996694,2000,12.5,2.0
# From MPC117072
A/2019 Q2,e,159.0238,188.0162,176.3011,58.08900,0.0022262,0.97835656,0.0000,07/22.3790/2019,2000,g 18.0,2.0
# From MPC117072
C/2019 Q3 (PANSTARRS),h,08/21.0398/2018,65.5302,151.3249,152.6470,1.004544,7.251166,2000,8.5,4.0
# From MPC117072
P/2019 S2 (PANSTARRS),e,10.4732,93.1261,216.7572,4.734557,0.0956721,0.20679771,42.4852,05/10.0/2020,2000,g 13.5,4.0
# From MPC118096
P/2019 S3 (PANSTARRS),e,8.6926,150.1651,212.9658,3.414026,0.1562442,0.47077347,40.2912,05/10.0/2020,2000,g 18.3,4.0
# From MPEC 2020-H67
C/2019 S4 (Lemmon),e,92.0246,63.1684,71.3561,240.2154,0.0002647,0.98567241,0.0000,04/07.9445/2020,2000,g 11.5,4.0
# From MPC118843
A/2019 T1,e,120.8685,6.9494,91.0007,38.22114,0.0041711,0.88796981,358.9610,05/10.0/2020,2000,g 13.0,2.0
# From MPEC 2020-AA5
A/2019 T2,e,111.4654,155.6391,239.3938,1994,0.0000111,0.99867341,0.0000,04/22.3112/2021,2000,g 12.5,2.0
# From MPEC 2020-H67
C/2019 T3 (ATLAS),e,121.8626,139.5157,112.2526,7321,0.0000016,0.99918768,0.0000,03/02.4439/2021,2000,g  6.8,4.0
# From MPEC 2020-H67
C/2019 T4 (ATLAS),e,53.6163,199.9747,351.2112,1058,0.0000286,0.99599073,0.0000,06/09.2708/2022,2000,g  5.0,4.0
# From MPEC 2020-H67
P/2019 T5 (ATLAS),e,33.4225,247.6941,189.6084,8.009053,0.0434843,0.80912423,12.3006,05/10.0/2020,2000,g 15.0,4.0
# From MPEC 2020-H67
P/2019 T6 (PANSTARRS),e,18.6965,71.3106,328.9087,5.433172,0.0778258,0.62234204,14.3386,05/10.0/2020,2000,g 15.5,4.0
# From MPC118096
P/2019 U4 (PANSTARRS),e,11.6906,200.0348,180.9580,3.520121,0.1492339,0.47530644,35.0170,05/10.0/2020,2000,g 19.0,4.0
# From MPEC 2020-H67
A/2019 U5,h,03/30.3181/2023,113.5196,2.6725,181.6013,1.000245,3.621392,2000,10.0,2.0
# From MPEC 2020-H67
C/2019 U6 (Lemmon),e,61.0017,235.7060,329.6609,430.9898,0.0001102,0.99787874,0.0000,06/18.8236/2020,2000,g 11.5,4.0
# From MPEC 2020-H67
C/2019 V1 (Borisov),e,61.8660,83.2062,51.2011,2742,0.0000069,0.99887054,0.0000,07/16.5750/2020,2000,g 11.0,4.0
# From MPEC 2020-H67
P/2019 V2 (Groeller),e,11.8003,189.1870,336.0710,7.521959,0.0477758,0.33257112,352.1904,05/10.0/2020,2000,g 10.0,4.0
# From MPC119998
P/2019 W1 (PANSTARRS),e,23.4601,35.4176,18.7270,4.550467,0.1015360,0.26610862,37.3796,05/10.0/2020,2000,g 12.9,4.0
# From MPEC 2020-H67
P/2019 X1 (Pruyne),e,10.2452,43.7172,36.8535,6.174026,0.0642468,0.30267989,18.8418,05/10.0/2020,2000,g 10.4,4.0
# From MPEC 2020-H67
C/2019 Y1 (ATLAS),e,73.3467,31.3679,57.5039,226.0481,0.0002900,0.99629389,0.0000,03/15.5650/2020,2000,g 13.7,4.0
# From MPEC 2020-H67
P/2019 Y2 (Fuls),e,4.8962,80.8355,92.3459,3.454128,0.1535311,0.38483612,15.2242,05/10.0/2020,2000,g 13.2,4.0
# From MPEC 2020-C98
P/2019 Y3 (Catalina),e,24.6354,139.3805,2.2773,2.998263,0.1898451,0.69579256,28.1991,05/10.0/2020,2000,g 18.5,4.0
# From MPEC 2020-H67
C/2019 Y4 (ATLAS),e,45.3845,120.5727,177.4320,232.0176,0.0002789,0.99891038,0.0000,05/31.0303/2020,2000,g 11.8,6.0
# From MPEC 2020-H67
C/2019 Y4-A (ATLAS),h,05/31.0451/2020,46.1109,121.1323,177.1274,1.003166,0.249835,2000,11.9,6.0
# From MPEC 2020-H67
C/2019 Y4-B (ATLAS),e,45.1891,120.4362,177.4846,123.1742,0.0007210,0.99794038,0.0000,05/31.0165/2020,2000,g 12.1,6.0
# From MPEC 2020-H67
C/2019 Y4-C (ATLAS),e,43.4122,119.3409,178.2938,14.94848,0.0170533,0.98250094,0.0000,05/31.0717/2020,2000,g 12.3,6.0
# From MPEC 2020-H67
C/2019 Y4-D (ATLAS),e,46.3080,121.5848,177.1798,293.3740,0.0001961,0.99915237,0.0000,05/31.1468/2020,2000,g 13.8,6.0
# From MPEC 2020-H67
